stk.v.4.3 

BEGIN Ephemeris 
 
NumberOfEphemerisPoints		146 
ScenarioEpoch	    3 Sep 2020 20:42:29.524627626 
InterpolationMethod		Lagrange 
InterpolationOrder		5 
CentralBody				Earth 
CoordinateSystem			TEME 
CoordinateSystemEpoch	  3 Sep 2020 20:42:29.524627626 
DistanceUnit			Kilometers 
 
EphemerisTimePosVel 
 
       0.00000000   -5524.49776303   -4552.34771819       0.04076748  0.305296581 -0.355614675  7.449130853
 END Ephemeris 
